OBJECT_NAME,OBJECT_ID,EPOCH,MEAN_MOTION,ECCENTRICITY,INCLINATION,RA_OF_ASC_NODE,ARG_OF_PERICENTER,MEAN_ANOMALY,EPHEMERIS_TYPE,CLASSIFICATION_TYPE,NORAD_CAT_ID,ELEMENT_SET_NO,REV_AT_EPOCH,BSTAR,MEAN_MOTION_DOT,MEAN_MOTION_DDOT
EUTELSAT HOTBIRD 13F,2022-134A,2026-07-06T18:59:17.765376,1.00271445,.0001876,0.0533,287.1370,73.1176,222.3467,0,U,54048,999,1357,0,.102E-5,0
LDPE-2,2022-144A,2026-07-06T16:33:23.095296,1.00541194,.0002388,5.6569,63.4877,104.8086,225.8714,0,U,54219,999,1203,0,.84E-6,0
EUTELSAT HOTBIRD 13G,2022-146A,2026-07-06T00:22:57.279072,1.00269337,.00023415,0.0490,216.4897,324.3238,121.9314,0,U,54225,999,765,0,.101E-5,0
ZHONGXING-19,2022-148A,2026-07-06T19:42:05.450688,1.00270865,.0003024,0.0401,254.9208,237.6222,250.9789,0,U,54230,999,1357,0,-.67E-6,0
GALAXY 31 (G-31),2022-153A,2026-07-06T14:55:48.179424,1.00272423,.0001355,0.0326,235.3613,230.2281,281.9624,0,U,54243,999,732,0,.28E-6,0
GALAXY 32 (G-32),2022-153B,2026-07-06T15:04:17.364864,1.00270960,.0001655,0.0098,16.8629,33.0795,9.7434,0,U,54244,999,1333,0,-.159E-5,0
EUTELSAT 10B,2022-157A,2026-07-06T18:58:25.349088,1.00263088,.0002146,0.0591,96.2407,27.0184,96.1263,0,U,54259,999,1322,0,.82E-6,0
GALAXY 35 (G-35),2022-170A,2026-07-06T13:21:01.809216,1.00271835,.0002114,0.0208,89.2684,18.8807,283.5456,0,U,54741,999,1308,0,-.148E-5,0
GALAXY 36 (G-36),2022-170B,2026-07-06T15:04:54.806304,1.00271211,.0002703,0.0230,135.5437,321.7428,324.5516,0,U,54742,999,1296,0,-.17E-5,0
METEOSAT-12 (MTG-I1),2022-170C,2026-07-06T13:47:36.760128,1.00276487,.0003406,0.7593,25.8620,76.6678,28.7511,0,U,54743,999,1317,0,.9E-7,0
SHIJIAN-23 (SJ-23),2023-002A,2026-07-02T18:38:54.470976,1.00083356,.0003517,3.7551,78.1245,278.1911,341.9054,0,U,55131,999,1266,0,-.31E-5,0
APSTAR-6E,2023-005A,2026-07-06T10:34:59.867616,1.00273909,.00016797,0.0433,220.2726,342.4252,14.4723,0,U,55239,999,1888,0,-.303E-5,0
USA 342,2023-008A,2026-07-01T03:52:39.557280,1.00270158,.0000567,0.0057,55.5286,166.1191,139.6640,0,U,55263,999,1265,0,0,0
LDPE-3A,2023-008B,2026-07-06T18:01:57.567072,0.99151543,.0001542,2.3955,81.4302,69.7030,215.9337,0,U,55264,999,1200,0,-.185E-5,0
ELEKTRO-L 4,2023-016A,2026-07-06T17:58:00.232320,1.00272027,.0001158,0.0994,134.6064,44.8124,180.5829,0,U,55506,999,1252,0,-.43E-6,0
AMAZONAS NEXUS,2023-017A,2026-07-06T18:38:09.098016,1.00270734,.0004676,0.0326,37.2855,44.7504,61.2676,0,U,55508,999,724,0,-.268E-5,0
ZHONGXING-26,2023-023A,2026-07-06T17:48:59.966208,1.00269634,.0003146,0.0598,70.4559,32.4351,214.1994,0,U,55686,999,1242,0,-.339E-5,0
LUCH-5X (OLYMP-K 2),2023-031A,2026-07-02T18:37:40.484064,1.00269692,.0001113,0.0299,86.0246,152.0734,24.0844,0,U,55841,999,1209,0,.44E-6,0
GAOFEN-13 02,2023-036A,2026-07-06T14:08:03.819840,1.00266360,.0003478,1.0242,3.4410,331.4280,309.8214,0,U,55912,999,1228,0,-.206E-5,0
SES-18,2023-038A,2026-07-06T15:00:55.188000,1.00271842,.0000448,0.0571,265.0498,287.9257,213.7656,0,U,55970,999,1229,0,-.86E-6,0
SES-19,2023-038B,2026-07-06T16:34:30.487296,1.00271341,.0001805,0.0376,283.8245,190.1056,284.4652,0,U,55971,999,1228,0,.102E-5,0
INTELSAT 40E (IS-40E),2023-052A,2026-07-06T15:04:17.364864,1.00268864,.0002373,0.0152,45.8072,97.6398,276.2339,0,U,56174,999,1201,0,0,0
VIASAT-3 F1,2023-060A,2026-07-06T15:04:54.806304,1.00267878,.0000804,0.0183,12.7042,84.5321,324.6359,0,U,56370,999,1162,0,0,0
ARCTURUS,2023-060B,2026-07-06T19:20:59.973216,1.00597721,.0000589,2.8241,79.6968,143.5754,80.9693,0,U,56371,999,1165,0,-.267E-5,0
GS-1,2023-060C,2026-07-06T19:21:07.459776,1.00269106,.0003546,2.7750,79.6003,280.9306,303.9410,0,U,56372,999,773,0,-.21E-5,0
BEIDOU-3 G4,2023-066A,2026-07-06T07:36:57.282624,1.00266978,.00050564,0.4680,336.2679,178.9368,23.3032,0,U,56564,999,1158,0,-.268E-5,0
ARABSAT-7B (BADR-8),2023-075A,2026-07-06T17:20:20.448096,1.00275262,.0003804,0.0739,29.5074,2.3712,178.9053,0,U,56757,999,1131,0,.16E-5,0
NVS-01 (IRNSS-1J),2023-076A,2026-07-06T17:49:51.228192,1.00269341,.0003213,2.1228,243.4778,7.6961,70.5707,0,U,56759,999,1131,0,-.32E-5,0
NUSANTARA TIGA (SATRIA),2023-086A,2026-07-06T17:00:49.804128,1.00269426,.00025,0.0347,3.5981,340.2515,342.0520,0,U,57045,999,995,0,-.22E-5,0
H2SAT (HEINRICH HERTZ),2023-093A,2026-07-06T18:55:48.101088,1.00270926,.0001081,0.0142,103.0809,33.2358,73.1178,0,U,57213,999,1111,0,.17E-6,0
SYRACUSE 4B,2023-093B,2026-07-06T17:11:04.481376,1.00271076,.0000427,0.0205,36.1720,201.3633,298.4687,0,U,57214,999,716,0,0,0
JUPITER 3 (ECHOSTAR 24),2023-108A,2026-07-06T11:23:08.236032,1.00270196,.0001268,0.0228,35.0419,66.6633,258.3090,0,U,57479,999,1083,0,0,0
