EUTELSAT HOTBIRD 13F    
1 54048U 22134A   26187.79117784  .00000102  00000+0  00000+0 0  9992
2 54048   0.0533 287.1370 0001876  73.1176 222.3467  1.00271445 13575
LDPE-2                  
1 54219U 22144A   26187.68985064  .00000084  00000+0  00000+0 0  9994
2 54219   5.6569  63.4877 0002388 104.8086 225.8714  1.00541194 12037
EUTELSAT HOTBIRD 13G    
1 54225U 22146A   26187.01594073  .00000101  00000+0  00000+0 0  9996
2 54225   0.0490 216.4897 0002341 324.3238 121.9314  1.00269337  7655
ZHONGXING-19            
1 54230U 22148A   26187.82089642 -.00000067  00000+0  00000+0 0  9996
2 54230   0.0401 254.9208 0003024 237.6222 250.9789  1.00270865 13579
GALAXY 31 (G-31)        
1 54243U 22153A   26187.62208541  .00000028  00000+0  00000+0 0  9991
2 54243   0.0326 235.3613 0001355 230.2281 281.9624  1.00272423  7321
GALAXY 32 (G-32)        
1 54244U 22153B   26187.62797876 -.00000159  00000+0  00000+0 0  9992
2 54244   0.0098  16.8629 0001655  33.0795   9.7434  1.00270960 13336
EUTELSAT 10B            
1 54259U 22157A   26187.79057117  .00000082  00000+0  00000+0 0  9991
2 54259   0.0591  96.2407 0002146  27.0184  96.1263  1.00263088 13228
GALAXY 35 (G-35)        
1 54741U 22170A   26187.55627094 -.00000148  00000+0  00000+0 0  9997
2 54741   0.0208  89.2684 0002114  18.8807 283.5456  1.00271835 13082
GALAXY 36 (G-36)        
1 54742U 22170B   26187.62841211 -.00000170  00000+0  00000+0 0  9990
2 54742   0.0230 135.5437 0002703 321.7428 324.5516  1.00271211 12965
METEOSAT-12 (MTG-I1)    
1 54743U 22170C   26187.57473102  .00000009  00000+0  00000+0 0  9995
2 54743   0.7593  25.8620 0003406  76.6678  28.7511  1.00276487 13176
SHIJIAN-23 (SJ-23)      
1 55131U 23002A   26183.77701934 -.00000310  00000+0  00000+0 0  9993
2 55131   3.7551  78.1245 0003517 278.1911 341.9054  1.00083356 12667
APSTAR-6E               
1 55239U 23005A   26187.44097069 -.00000303  00000+0  00000+0 0  9992
2 55239   0.0433 220.2726 0001679 342.4252  14.4723  1.00273909 18889
USA 342                 
1 55263U 23008A   26182.16156895  .00000000  00000+0  00000+0 0  9992
2 55263   0.0057  55.5286 0000567 166.1191 139.6640  1.00270158 12656
LDPE-3A                 
1 55264U 23008B   26187.75136073 -.00000185  00000+0  00000+0 0  9994
2 55264   2.3955  81.4302 0001542  69.7030 215.9337  0.99151543 12003
ELEKTRO-L 4             
1 55506U 23016A   26187.74861380 -.00000043  00000+0  00000+0 0  9990
2 55506   0.0994 134.6064 0001158  44.8124 180.5829  1.00272027 12521
AMAZONAS NEXUS          
1 55508U 23017A   26187.77649419 -.00000268  00000+0  00000+0 0  9992
2 55508   0.0326  37.2855 0004676  44.7504  61.2676  1.00270734  7248
ZHONGXING-26            
1 55686U 23023A   26187.74236072 -.00000339  00000+0  00000+0 0  9999
2 55686   0.0598  70.4559 0003146  32.4351 214.1994  1.00269634 12426
LUCH-5X (OLYMP-K 2)     
1 55841U 23031A   26183.77616301  .00000044  00000+0  00000+0 0  9999
2 55841   0.0299  86.0246 0001113 152.0734  24.0844  1.00269692 12098
GAOFEN-13 02            
1 55912U 23036A   26187.58893310 -.00000206  00000+0  00000+0 0  9994
2 55912   1.0242   3.4410 0003478 331.4280 309.8214  1.00266360 12282
SES-18                  
1 55970U 23038A   26187.62563875 -.00000086  00000+0  00000+0 0  9991
2 55970   0.0571 265.0498 0000448 287.9257 213.7656  1.00271842 12290
SES-19                  
1 55971U 23038B   26187.69063064  .00000102  00000+0  00000+0 0  9992
2 55971   0.0376 283.8245 0001805 190.1056 284.4652  1.00271341 12286
INTELSAT 40E (IS-40E)   
1 56174U 23052A   26187.62797876  .00000000  00000+0  00000+0 0  9999
2 56174   0.0152  45.8072 0002373  97.6398 276.2339  1.00268864 12017
VIASAT-3 F1             
1 56370U 23060A   26187.62841211  .00000000  00000+0  00000+0 0  9999
2 56370   0.0183  12.7042 0000804  84.5321 324.6359  1.00267878 11627
ARCTURUS                
1 56371U 23060B   26187.80624969 -.00000267  00000+0  00000+0 0  9995
2 56371   2.8241  79.6968 0000589 143.5754  80.9693  1.00597721 11657
GS-1                    
1 56372U 23060C   26187.80633634 -.00000210  00000+0  00000+0 0  9993
2 56372   2.7750  79.6003 0003546 280.9306 303.9410  1.00269106  7739
BEIDOU-3 G4             
1 56564U 23066A   26187.31732966 -.00000268  00000+0  00000+0 0  9999
2 56564   0.4680 336.2679 0005056 178.9368  23.3032  1.00266978 11587
ARABSAT-7B (BADR-8)     
1 56757U 23075A   26187.72245889  .00000160  00000+0  00000+0 0  9991
2 56757   0.0739  29.5074 0003804   2.3712 178.9053  1.00275262 11312
NVS-01 (IRNSS-1J)       
1 56759U 23076A   26187.74295403 -.00000320  00000+0  00000+0 0  9992
2 56759   2.1228 243.4778 0003213   7.6961  70.5707  1.00269341 11310
NUSANTARA TIGA (SATRIA) 
1 57045U 23086A   26187.70890977 -.00000220  00000+0  00000+0 0  9994
2 57045   0.0347   3.5981 0002500 340.2515 342.0520  1.00269426  9959
H2SAT (HEINRICH HERTZ)  
1 57213U 23093A   26187.78875117  .00000017  00000+0  00000+0 0  9999
2 57213   0.0142 103.0809 0001081  33.2358  73.1178  1.00270926 11110
SYRACUSE 4B             
1 57214U 23093B   26187.71602409  .00000000  00000+0  00000+0 0  9997
2 57214   0.0205  36.1720 0000427 201.3633 298.4687  1.00271076  7160
JUPITER 3 (ECHOSTAR 24) 
1 57479U 23108A   26187.47440088  .00000000  00000+0  00000+0 0  9993
2 57479   0.0228  35.0419 0001268  66.6633 258.3090  1.00270196 10830
